[
  {
    "OBJECT_NAME": "STARLINK-30849",
    "OBJECT_ID": "23171R",
    "EPOCH": "2025-11-11T01:19:17.370624",
    "MEAN_MOTION": 15.025351,
    "ECCENTRICITY": 0.0001268,
    "INCLINATION": 43.0042,
    "RA_OF_ASC_NODE": 210.2904,
    "ARG_OF_PERICENTER": 261.5211,
    "MEAN_ANOMALY": 98.5488,
    "EPHEMERIS_TYPE": 0,
    "CLASSIFICATION_TYPE": "U",
    "NORAD_CAT_ID": 58245,
    "ELEMENT_SET_NO": 999,
    "REV_AT_EPOCH": 11188,
    "BSTAR": 0.0001846,
    "MEAN_MOTION_DOT": 2.291e-05,
    "MEAN_MOTION_DDOT": 0.0,
    "TLE_LINE1": "1 58245U 23171R   25315.05506216  .00002291  00000+0  18460-3 0  9994",
    "TLE_LINE2": "2 58245  43.0042 210.2904 0001268 261.5211  98.5488 15.02535100111885",
    "COMMENT": "Grouped by shell and plane from TLE"
  },
  {
    "OBJECT_NAME": "STARLINK-30886",
    "OBJECT_ID": "23171S",
    "EPOCH": "2025-11-11T01:28:52.787712",
    "MEAN_MOTION": 15.02534847,
    "ECCENTRICITY": 0.0001172,
    "INCLINATION": 43.0029,
    "RA_OF_ASC_NODE": 210.3386,
    "ARG_OF_PERICENTER": 269.0688,
    "MEAN_ANOMALY": 91.002,
    "EPHEMERIS_TYPE": 0,
    "CLASSIFICATION_TYPE": "U",
    "NORAD_CAT_ID": 58246,
    "ELEMENT_SET_NO": 999,
    "REV_AT_EPOCH": 11188,
    "BSTAR": 0.00011585,
    "MEAN_MOTION_DOT": 1.362e-05,
    "MEAN_MOTION_DDOT": 0.0,
    "TLE_LINE1": "1 58246U 23171S   25315.06172208  .00001362  00000+0  11585-3 0  9995",
    "TLE_LINE2": "2 58246  43.0029 210.3386 0001172 269.0688  91.0020 15.02534847111888",
    "COMMENT": "Grouped by shell and plane from TLE"
  },
  {
    "OBJECT_NAME": "STARLINK-30823",
    "OBJECT_ID": "23171U",
    "EPOCH": "2025-11-11T01:33:40.135104",
    "MEAN_MOTION": 15.02525176,
    "ECCENTRICITY": 0.0001703,
    "INCLINATION": 43.0037,
    "RA_OF_ASC_NODE": 210.3628,
    "ARG_OF_PERICENTER": 279.3043,
    "MEAN_ANOMALY": 80.7607,
    "EPHEMERIS_TYPE": 0,
    "CLASSIFICATION_TYPE": "U",
    "NORAD_CAT_ID": 58248,
    "ELEMENT_SET_NO": 999,
    "REV_AT_EPOCH": 11188,
    "BSTAR": 0.00027837,
    "MEAN_MOTION_DOT": 3.557e-05,
    "MEAN_MOTION_DDOT": 0.0,
    "TLE_LINE1": "1 58248U 23171U   25315.06504786  .00003557  00000+0  27837-3 0  9992",
    "TLE_LINE2": "2 58248  43.0037 210.3628 0001703 279.3043  80.7607 15.02525176111888",
    "COMMENT": "Grouped by shell and plane from TLE"
  },
  {
    "OBJECT_NAME": "STARLINK-30873",
    "OBJECT_ID": "23171V",
    "EPOCH": "2025-11-11T01:38:28.178880",
    "MEAN_MOTION": 15.02555168,
    "ECCENTRICITY": 0.0001152,
    "INCLINATION": 43.0032,
    "RA_OF_ASC_NODE": 210.3871,
    "ARG_OF_PERICENTER": 271.7557,
    "MEAN_ANOMALY": 88.3154,
    "EPHEMERIS_TYPE": 0,
    "CLASSIFICATION_TYPE": "U",
    "NORAD_CAT_ID": 58249,
    "ELEMENT_SET_NO": 999,
    "REV_AT_EPOCH": 11188,
    "BSTAR": 5.8534e-05,
    "MEAN_MOTION_DOT": 5.88e-06,
    "MEAN_MOTION_DDOT": 0.0,
    "TLE_LINE1": "1 58249U 23171V   25315.06838170  .00000588  00000+0  58534-4 0  9990",
    "TLE_LINE2": "2 58249  43.0032 210.3871 0001152 271.7557  88.3154 15.02555168111883",
    "COMMENT": "Grouped by shell and plane from TLE"
  },
  {
    "OBJECT_NAME": "STARLINK-30808",
    "OBJECT_ID": "23171W",
    "EPOCH": "2025-11-11T02:18:56.117376",
    "MEAN_MOTION": 15.02534927,
    "ECCENTRICITY": 0.0001108,
    "INCLINATION": 43.0025,
    "RA_OF_ASC_NODE": 212.276,
    "ARG_OF_PERICENTER": 267.6342,
    "MEAN_ANOMALY": 92.4373,
    "EPHEMERIS_TYPE": 0,
    "CLASSIFICATION_TYPE": "U",
    "NORAD_CAT_ID": 58250,
    "ELEMENT_SET_NO": 999,
    "REV_AT_EPOCH": 11186,
    "BSTAR": 0.00013991,
    "MEAN_MOTION_DOT": 1.687e-05,
    "MEAN_MOTION_DDOT": 0.0,
    "TLE_LINE1": "1 58250U 23171W   25315.09648284  .00001687  00000+0  13991-3 0  9998",
    "TLE_LINE2": "2 58250  43.0025 212.2760 0001108 267.6342  92.4373 15.02534927111869",
    "COMMENT": "Grouped by shell and plane from TLE"
  },
  {
    "OBJECT_NAME": "STARLINK-30881",
    "OBJECT_ID": "23171X",
    "EPOCH": "2025-11-11T01:09:51.372000",
    "MEAN_MOTION": 15.02520318,
    "ECCENTRICITY": 0.0001389,
    "INCLINATION": 43.0029,
    "RA_OF_ASC_NODE": 211.0093,
    "ARG_OF_PERICENTER": 279.4974,
    "MEAN_ANOMALY": 80.5711,
    "EPHEMERIS_TYPE": 0,
    "CLASSIFICATION_TYPE": "U",
    "NORAD_CAT_ID": 58251,
    "ELEMENT_SET_NO": 999,
    "REV_AT_EPOCH": 11187,
    "BSTAR": 0.00022834,
    "MEAN_MOTION_DOT": 2.881e-05,
    "MEAN_MOTION_DDOT": 0.0,
    "TLE_LINE1": "1 58251U 23171X   25315.04851125  .00002881  00000+0  22834-3 0  9997",
    "TLE_LINE2": "2 58251  43.0029 211.0093 0001389 279.4974  80.5711 15.02520318111877",
    "COMMENT": "Grouped by shell and plane from TLE"
  },
  {
    "OBJECT_NAME": "STARLINK-30883",
    "OBJECT_ID": "23171Y",
    "EPOCH": "2025-11-11T03:28:34.687488",
    "MEAN_MOTION": 15.02536349,
    "ECCENTRICITY": 0.0001185,
    "INCLINATION": 43.0038,
    "RA_OF_ASC_NODE": 210.0922,
    "ARG_OF_PERICENTER": 268.6507,
    "MEAN_ANOMALY": 91.42,
    "EPHEMERIS_TYPE": 0,
    "CLASSIFICATION_TYPE": "U",
    "NORAD_CAT_ID": 58252,
    "ELEMENT_SET_NO": 999,
    "REV_AT_EPOCH": 11189,
    "BSTAR": 0.00012547,
    "MEAN_MOTION_DOT": 1.492e-05,
    "MEAN_MOTION_DDOT": 0.0,
    "TLE_LINE1": "1 58252U 23171Y   25315.14484592  .00001492  00000+0  12547-3 0  9996",
    "TLE_LINE2": "2 58252  43.0038 210.0922 0001185 268.6507  91.4200 15.02536349111891",
    "COMMENT": "Grouped by shell and plane from TLE"
  },
  {
    "OBJECT_NAME": "STARLINK-34012",
    "OBJECT_ID": "25098A",
    "EPOCH": "2025-11-11T03:39:10.009152",
    "MEAN_MOTION": 14.98352292,
    "ECCENTRICITY": 0.0002828,
    "INCLINATION": 70.001,
    "RA_OF_ASC_NODE": 213.4534,
    "ARG_OF_PERICENTER": 272.1447,
    "MEAN_ANOMALY": 87.9388,
    "EPHEMERIS_TYPE": 0,
    "CLASSIFICATION_TYPE": "U",
    "NORAD_CAT_ID": 63926,
    "ELEMENT_SET_NO": 999,
    "REV_AT_EPOCH": 2883,
    "BSTAR": 0.0008223200000000001,
    "MEAN_MOTION_DOT": 9.738e-05,
    "MEAN_MOTION_DDOT": 0.0,
    "TLE_LINE1": "1 63926U 25098A   25315.15219918  .00009738  00000+0  82232-3 0  9998",
    "TLE_LINE2": "2 63926  70.0010 213.4534 0002828 272.1447  87.9388 14.98352292 28834",
    "COMMENT": "Grouped by shell and plane from TLE"
  },
  {
    "OBJECT_NAME": "STARLINK-33956",
    "OBJECT_ID": "25098B",
    "EPOCH": "2025-11-11T08:00:03.000384",
    "MEAN_MOTION": 14.98387643,
    "ECCENTRICITY": 0.0002265,
    "INCLINATION": 70.0008,
    "RA_OF_ASC_NODE": 212.7148,
    "ARG_OF_PERICENTER": 289.9852,
    "MEAN_ANOMALY": 214.5399,
    "EPHEMERIS_TYPE": 0,
    "CLASSIFICATION_TYPE": "U",
    "NORAD_CAT_ID": 63927,
    "ELEMENT_SET_NO": 999,
    "REV_AT_EPOCH": 578,
    "BSTAR": 0.0,
    "MEAN_MOTION_DOT": -0.00041149,
    "MEAN_MOTION_DDOT": 0.0,
    "TLE_LINE1": "1 63927U 25098B   25315.33336806 -.00041149  00000+0 -34561-2 0  9990",
    "TLE_LINE2": "2 63927  70.0008 212.7148 0002265 289.9852 214.5399 14.98387643  5783",
    "COMMENT": "Grouped by shell and plane from TLE"
  },
  {
    "OBJECT_NAME": "STARLINK-33997",
    "OBJECT_ID": "25098C",
    "EPOCH": "2025-11-11T03:57:11.987712",
    "MEAN_MOTION": 14.98350494,
    "ECCENTRICITY": 0.0002548,
    "INCLINATION": 70.0027,
    "RA_OF_ASC_NODE": 213.4852,
    "ARG_OF_PERICENTER": 276.0178,
    "MEAN_ANOMALY": 84.0691,
    "EPHEMERIS_TYPE": 0,
    "CLASSIFICATION_TYPE": "U",
    "NORAD_CAT_ID": 63928,
    "ELEMENT_SET_NO": 999,
    "REV_AT_EPOCH": 2881,
    "BSTAR": 0.00079559,
    "MEAN_MOTION_DOT": 9.417e-05,
    "MEAN_MOTION_DDOT": 0.0,
    "TLE_LINE1": "1 63928U 25098C   25315.16472208  .00009417  00000+0  79559-3 0  9996",
    "TLE_LINE2": "2 63928  70.0027 213.4852 0002548 276.0178  84.0691 14.98350494 28815",
    "COMMENT": "Grouped by shell and plane from TLE"
  },
  {
    "OBJECT_NAME": "STARLINK-33989",
    "OBJECT_ID": "25098D",
    "EPOCH": "2025-11-11T03:21:22.509504",
    "MEAN_MOTION": 14.9835156,
    "ECCENTRICITY": 0.0002897,
    "INCLINATION": 70.0016,
    "RA_OF_ASC_NODE": 213.4085,
    "ARG_OF_PERICENTER": 270.2576,
    "MEAN_ANOMALY": 89.8251,
    "EPHEMERIS_TYPE": 0,
    "CLASSIFICATION_TYPE": "U",
    "NORAD_CAT_ID": 63929,
    "ELEMENT_SET_NO": 999,
    "REV_AT_EPOCH": 2881,
    "BSTAR": 0.0008612800000000001,
    "MEAN_MOTION_DOT": 0.00010204,
    "MEAN_MOTION_DDOT": 0.0,
    "TLE_LINE1": "1 63929U 25098D   25315.13984386  .00010204  00000+0  86128-3 0  9995",
    "TLE_LINE2": "2 63929  70.0016 213.4085 0002897 270.2576  89.8251 14.98351560 28817",
    "COMMENT": "Grouped by shell and plane from TLE"
  },
  {
    "OBJECT_NAME": "STARLINK-33980",
    "OBJECT_ID": "25098E",
    "EPOCH": "2025-11-11T03:51:11.445696",
    "MEAN_MOTION": 14.98345753,
    "ECCENTRICITY": 0.000262,
    "INCLINATION": 70.0021,
    "RA_OF_ASC_NODE": 213.4823,
    "ARG_OF_PERICENTER": 272.4435,
    "MEAN_ANOMALY": 87.6424,
    "EPHEMERIS_TYPE": 0,
    "CLASSIFICATION_TYPE": "U",
    "NORAD_CAT_ID": 63930,
    "ELEMENT_SET_NO": 999,
    "REV_AT_EPOCH": 2881,
    "BSTAR": 0.00058433,
    "MEAN_MOTION_DOT": 6.889e-05,
    "MEAN_MOTION_DDOT": 0.0,
    "TLE_LINE1": "1 63930U 25098E   25315.16054914  .00006889  00000+0  58433-3 0  9997",
    "TLE_LINE2": "2 63930  70.0021 213.4823 0002620 272.4435  87.6424 14.98345753 28812",
    "COMMENT": "Grouped by shell and plane from TLE"
  },
  {
    "OBJECT_NAME": "STARLINK-33994",
    "OBJECT_ID": "25098F",
    "EPOCH": "2025-11-11T03:15:23.381856",
    "MEAN_MOTION": 14.98347553,
    "ECCENTRICITY": 0.0002992,
    "INCLINATION": 70.0009,
    "RA_OF_ASC_NODE": 213.3937,
    "ARG_OF_PERICENTER": 269.7107,
    "MEAN_ANOMALY": 90.3709,
    "EPHEMERIS_TYPE": 0,
    "CLASSIFICATION_TYPE": "U",
    "NORAD_CAT_ID": 63931,
    "ELEMENT_SET_NO": 999,
    "REV_AT_EPOCH": 2881,
    "BSTAR": 0.0011639,
    "MEAN_MOTION_DOT": 0.00013828,
    "MEAN_MOTION_DDOT": 0.0,
    "TLE_LINE1": "1 63931U 25098F   25315.13568729  .00013828  00000+0  11639-2 0  9996",
    "TLE_LINE2": "2 63931  70.0009 213.3937 0002992 269.7107  90.3709 14.98347553 28818",
    "COMMENT": "Grouped by shell and plane from TLE"
  }
]